satname,norad_id,inclination_deg,eccentricity,mean_motion_rev_per_day,perigee_km,apogee_km,l1,l2
STARLINK-1297,45395,53.0511,0.0002306,15.49032222,417.98834592931144,421.123441891983,1 45395U 20019AM  26042.59991494  .00071409  00000+0  12926-2 0  9994,2 45395  53.0511 256.1669 0002306 147.4635 212.6515 15.49032222325360
STARLINK-1307,45397,53.0546,0.0001077,15.48364182,420.778669264786,422.2433134421244,1 45397U 20019AP  26042.58335648  .00087823  00000+0  16220-2 0  9996,2 45397  53.0546 255.8539 0001077  95.1196  59.1197 15.48364182  5847
STARLINK-1255,45399,53.0447,0.0006445,15.4663166,422.2023323192543,430.9736228153379,1 45399U 20019AR  26040.81933768  .00109360  00000+0  21355-2 0  9995,2 45399  53.0447 236.3285 0006445 145.7864 214.3559 15.46631660326118
STARLINK-1260,45404,53.1626,0.000134,15.30194734,474.31244150697876,476.1491440754471,1 45404U 20019AW  26041.98398473  .00000368  00000+0  24562-4 0  9992,2 45404  53.1626 253.2823 0001340  85.4555 274.6599 15.30194734325882
STARLINK-1263,45405,53.1597,0.0001269,15.30182751,474.3968753946456,476.13626922129697,1 45405U 20019AX  26042.58335648  .00037199  00000+0  12625-2 0  9992,2 45405  53.1597 250.5299 0001269  89.7498  37.8127 15.30182751  5797
STARLINK-1265,45406,53.1607,0.0001506,15.30056005,474.61286667615786,476.6772258284891,1 45406U 20019AY  26042.18316403  .00061177  00000+0  20699-2 0  9990,2 45406  53.1607 252.4650 0001506  66.1366 293.9792 15.30056005325913
STARLINK-1278,45408,53.048,0.0005309,15.50557829,411.48976305157794,418.7028181595424,1 45408U 20019BA  26041.88192784  .00106581  00000+0  18156-2 0  9996,2 45408  53.0480 259.6281 0005309 107.4558 252.7031 15.50557829325796
STARLINK-1296,45412,53.1623,0.0001413,15.30214995,474.2019250966787,476.1386697389289,1 45412U 20019BE  26041.85019815  .00006549  00000+0  23293-3 0  9993,2 45412  53.1623 253.9077 0001413 103.2010 256.9149 15.30214995325866
STARLINK-1298,45413,53.0385,0.0005525,15.83149453,317.83893011564214,325.2420737552802,1 45413U 20019BF  26042.58335648  .00228613  00000+0  10169-2 0  9995,2 45413  53.0385 186.7226 0005525 251.0892 130.6324 15.83149453  6029
STARLINK-1309,45414,53.07,6.29e-05,15.50081939,416.0592294310027,416.91399308129894,1 45414U 20019BG  26042.58335648  .00080088  00000+0  13947-2 0  9995,2 45414  53.0700 249.2430 0000629 125.1964  54.3852 15.50081939  5827
STARLINK-1316,45415,53.1594,0.0001306,15.30177772,474.38638257597995,476.1764954722539,1 45415U 20019BH  26041.89551699  .00000614  00000+0  32886-4 0  9997,2 45415  53.1594 253.7585 0001306 106.8486 253.2658 15.30177772325894
STARLINK-1318,45416,53.034,0.000603,15.93663607,288.0185896234034,296.0628239377802,1 45416U 20019BJ  26042.58335648  .00433366  84895-4  11759-2 0  9996,2 45416  53.0340 172.7883 0006030 305.5856 315.5143 15.93663607  5883
STARLINK-1286,45417,53.0494,0.0002331,15.48836118,418.54499358396697,421.7143455053092,1 45417U 20019BK  26041.90842288  .00028412  00000+0  52559-3 0  9992,2 45417  53.0494 259.1960 0002331  71.6349 288.4912 15.48836118326076
STARLINK-1308,45419,53.0555,0.0002349,15.42733612,436.4444346433702,439.64667720814396,1 45419U 20019BM  26042.07132737  .00018496  00000+0  42523-3 0  9995,2 45419  53.0555 279.3102 0002349 118.4598 241.6644 15.42733612325557
STARLINK-1329,45531,53.0515,0.0006131,15.50769445,410.31372688147985,418.64283173696913,1 45531U 20025A   26041.91667824  .00117859  00000+0  19887-2 0  9998,2 45531  53.0515 210.4759 0006131 163.7545  59.2339 15.50769445  5854
STARLINK-1338,45532,53.0509,0.0005283,15.49828283,413.63797091034667,420.81795352942845,1 45532U 20025B   26042.58335648  .00048143  00000+0  85221-3 0  9994,2 45532  53.0509 210.4065 0005283 206.0212 282.0983 15.49828283  5942
STARLINK-1350,45535,53.0722,0.0001205,15.35409275,458.8811455689565,460.5290655163926,1 45535U 20025E   26042.62909831  .00013860  00000+0  40735-3 0  9992,2 45535  53.0722 155.4666 0001205  52.1181 307.9930 15.35409275322157
STARLINK-1362,45538,53.1547,0.0001355,15.29348012,476.8311588620354,478.68910698505715,1 45538U 20025H   26042.58335648  .00005277  00000+0  19511-3 0  9990,2 45538  53.1547 222.1943 0001355 100.1320 227.6206 15.29348012  5797
STARLINK-1368,45540,53.1422,0.0001383,15.26577176,485.1042380026647,487.00287311033117,1 45540U 20025K   26042.58335648  .00804154  00000+0  28033-1 0  9991,2 45540  53.1422 222.5251 0001383 115.4205 160.8492 15.26577176  5786
STARLINK-1371,45542,53.0523,0.0004398,15.4349748,432.79974281471823,438.79327873079455,1 45542U 20025M   26042.61252083  .00023159  00000+0  51629-3 0  9995,2 45542  53.0523 213.5928 0004398 171.3656 188.7425 15.43497480321302
STARLINK-1372,45543,53.1594,0.0001214,15.30184834,474.4283502970202,476.0923551742644,1 45543U 20025N   26042.58335648  .00004625  00000+0  16824-3 0  9996,2 45543  53.1594 222.2806 0001214  99.3949 269.9240 15.30184834  5221
STARLINK-1373,45544,53.0502,0.0004429,15.45955365,425.5576753251089,431.5870584823115,1 45544U 20025P   26042.61842173  .00123308  00000+0  24598-2 0  9993,2 45544  53.0502 213.7442 0004429 228.4730 131.5896 15.45955365321307
STARLINK-1294,45551,53.0323,0.0008776,15.90285973,295.6199316716302,307.34399887948166,1 45551U 20025W   26042.58335648  .00358349  58821-4  11584-2 0  9996,2 45551  53.0323 108.8067 0008776   7.5544 342.0515 15.90285973  6006
STARLINK-1327,45555,53.0504,0.0001972,15.49005181,418.2944846393657,420.9755259182466,1 45555U 20025AA  26042.62560273  .00125310  00000+0  22488-2 0  9995,2 45555  53.0504 191.9540 0001972 291.9352  68.1446 15.49005181321607
STARLINK-1356,45564,53.0523,0.0002829,15.41817827,438.8152740913656,442.67339715105936,1 45564U 20025AK  26042.58335648  .00013767  00000+0  32892-3 0  9999,2 45564  53.0523 197.8529 0002829 282.0332 164.5330 15.41817827  5861
STARLINK-1357,45565,53.0546,0.0001085,15.50282261,415.164127314898,416.63843362175976,1 45565U 20025AL  26042.58233381  .00091599  00000+0  15805-2 0  9994,2 45565  53.0546 163.7918 0001085 260.9706  99.1180 15.50282261322006
STARLINK-1361,45567,53.0528,0.0002705,15.42795736,436.01884794484977,439.7063037153739,1 45567U 20025AN  26042.58335648  .00096212  00000+0  21463-2 0  9999,2 45567  53.0528 198.2792 0002705 287.6013 202.9701 15.42795736  5859
STARLINK-1363,45568,53.0441,0.0006026,15.70022869,354.7718905128786,362.89128505487497,1 45568U 20025AP  26042.58335648  .00182048  00000+0  14546-2 0  9997,2 45568  53.0441 167.4968 0006026 333.1936 327.5540 15.70022869  5977
STARLINK-1366,45569,53.0447,0.000566,15.69649485,356.0861978488774,363.7136556499581,1 45569U 20025AQ  26042.58335648  .00182087  00000+0  14777-2 0  9997,2 45569  53.0447 168.1580 0005660 328.4544 301.7235 15.69649485  5979
STARLINK-1376,45570,53.1609,0.0001477,15.29362435,476.7044191517725,478.7296384318779,1 45570U 20025AR  26042.57905194  .00005217  00000+0  19296-3 0  9998,2 45570  53.1609 198.9293 0001477 116.3434 243.7719 15.29362435321503
STARLINK-1320,45572,53.0517,0.0006737,15.62995086,374.45873501797996,383.56331626773135,1 45572U 20025AT  26042.19512707  .00108874  00000+0  11669-2 0  9990,2 45572  53.0517 115.9544 0006737 295.5263  64.5053 15.62995086322652
STARLINK-1321,45573,53.0504,0.0002489,15.43960378,432.73886052707803,436.1301586245463,1 45573U 20025AU  26042.57747078  .00107288  00000+0  22970-2 0  9999,2 45573  53.0504 183.0401 0002489 269.0243  91.0477 15.43960378321425
STARLINK-1331,45578,53.0544,0.0001149,15.44199817,432.94758319967605,434.5129502975751,1 45578U 20025AZ  26042.58465905  .00021373  00000+0  46624-3 0  9994,2 45578  53.0544 189.6657 0001149  76.3090 283.8043 15.44199817321647
STARLINK-1333,45580,53.1582,0.0001567,15.30199557,474.1424716612446,476.2903126143401,1 45580U 20025BB  26042.63275923  .00000882  00000+0  41909-4 0  9996,2 45580  53.1582 198.8325 0001567 128.4325 231.6816 15.30199557321512
STARLINK-1335,45581,53.0577,0.0001607,15.06397611,546.1059751989769,548.3317845787733,1 45581U 20025BC  26042.58914629  .00000070  00000+0  23633-4 0  9997,2 45581  53.0577 193.7895 0001607 101.5807 258.5362 15.06397611321578
STARLINK-1337,45582,53.0545,0.00011,15.53558079,405.60106405443094,407.0936506130447,1 45582U 20025BD  26042.60340738  .00036392  00000+0  56673-3 0  9990,2 45582  53.0545 188.0070 0001100  66.6746 293.4379 15.53558079321651
STARLINK-1347,45586,53.0478,0.0004514,15.49101917,416.2836177295858,422.4203908026366,1 45586U 20025BH  26042.59233744  .00042197  00000+0  76793-3 0  9995,2 45586  53.0478 154.9969 0004514 288.5543  71.4974 15.49101917322118
STARLINK-1364,45589,53.0534,0.0003399,15.45054834,428.90245864111876,433.53145746180144,1 45589U 20025BL  26042.59044719  .00087097  00000+0  18030-2 0  9997,2 45589  53.0534 187.8974 0003399 308.8839  51.1863 15.45054834321650
STARLINK-1365,45590,53.053,8.9e-05,15.42586722,437.8715759814904,439.0849334968343,1 45590U 20025BM  26042.51323725  .00021387  00000+0  49246-3 0  9992,2 45590  53.0530 217.9576 0000890 154.2997 205.8053 15.42586722321249
STARLINK-1443,45660,53.0566,0.00014,15.06393869,546.2607972051737,548.1999000627911,1 45660U 20035D   26042.61586997  .00000345  00000+0  42064-4 0  9997,2 45660  53.0566 183.6688 0001400 100.5659 259.5488 15.06393869314806
STARLINK-1446,45663,53.0244,0.0002832,15.41689949,439.19018529001914,443.0526132473651,1 45663U 20035G   26042.50162870  .00021860  00000+0  51829-3 0  9991,2 45663  53.0244 123.6601 0002832 169.7505 190.3558 15.41689949315636
STARLINK-1448,45665,53.0524,0.000393,15.47111,422.5086659473618,427.85607497254387,1 45665U 20035J   26042.59421012  .00071581  00000+0  13850-2 0  9994,2 45665  53.0524 177.8676 0003930 344.5821  15.5065 15.47111000314876
STARLINK-1451,45668,53.0511,0.0001955,15.08690349,538.8483149630647,541.5533850624197,1 45668U 20035M   26042.59127803  .00037126  00000+0  23478-2 0  9992,2 45668  53.0511 183.7595 0001955 182.5997 177.4984 15.08690349314806
